ONEWEB-0628             
1 55169U 23004AF  24157.92077427  .00000210  00000+0  55039-3 0  9999
2 55169  87.8934 138.2258 0001206  99.3166 260.8098 13.12303573 70805
ONEWEB-0629             
1 55170U 23004AG  24157.92100385  .00000034  00000+0  55131-4 0  9999
2 55170  87.9158 153.4361 0001827 102.0167 258.1169 13.17646870 69961
ONEWEB-0631             
1 55171U 23004AH  24157.63586079  .00000014  00000+0  35832-5 0  9991
2 55171  87.9141 123.0312 0002039  64.8895 295.2448 13.18685105 71940
ONEWEB-0709             
1 55172U 23004AJ  24158.05750917 -.00000472  00000+0 -13676-2 0  9992
2 55172  87.8960 168.5699 0002636  67.6209 292.5198 13.11418329 68745
ONEWEB-0710             
1 55173U 23004AK  24157.91469157  .00000058  00000+0  11632-3 0  9999
2 55173  87.9158 153.4490 0001975  83.0827 277.0529 13.17648060 69965
ONEWEB-0711             
1 55174U 23004AL  24157.95239990  .00000427  00000+0  11688-2 0  9994
2 55174  87.8960 168.5602 0001085  93.8267 266.2985 13.11416776 68682
ONEWEB-0713             
1 55175U 23004AM  24157.74214551 -.00000371  00000+0 -10830-2 0  9996
2 55175  87.8957 168.6099 0001613  92.0384 268.0929 13.11414247 68643
ONEWEB-0715             
1 55176U 23004AN  24158.11851895  .00001250  00000+0  34895-2 0  9999
2 55176  87.8958 168.5355 0002075  98.1021 262.0342 13.11425774 68748
